{
  "type": "FeatureCollection",
  "features": [
    {
      "type": "Feature",
      "properties": {
        "norad_id": 2807,
        "name": "OPS 7218 (TRANSIT 16)",
        "group": "nnss",
        "lat": -52.322630939315076,
        "lon": 174.63485295957483,
        "alt_km": 1080.0721865880087,
        "timestamp": "2025-12-06T20:37:56.340187+00:00",
        "meta_object_name": "OPS 7218 (TRANSIT 16)",
        "meta_object_id": "1967-048A",
        "meta_epoch": "2025-12-06T14:45:02.475936",
        "meta_mean_motion": 13.50720552,
        "meta_eccentricity": 0.0021677,
        "meta_inclination": 89.6732,
        "meta_ra_of_asc_node": 354.2195,
        "meta_arg_of_pericenter": 130.553,
        "meta_mean_anomaly": 350.4958,
        "meta_ephemeris_type": 0,
        "meta_classification_type": "U",
        "meta_norad_cat_id": 2807,
        "meta_element_set_no": 999,
        "meta_rev_at_epoch": 88193,
        "meta_bstar": 0.00024881499,
        "meta_mean_motion_dot": 1.71e-06,
        "meta_mean_motion_ddot": 0,
        "tle_line1": "1 02807U 67048A   25340.61461199  .00000171  00000+0  24881-3 0  9997",
        "tle_line2": "2 02807  89.6732 354.2195 0021677 130.5530 350.4958 13.50720552881936"
      },
      "geometry": {
        "type": "Point",
        "coordinates": [
          174.63485295957483,
          -52.322630939315076
        ]
      }
    },
    {
      "type": "Feature",
      "properties": {
        "norad_id": 2965,
        "name": "OPS 4947 (TRANSIT 17)",
        "group": "nnss",
        "lat": -58.685929185562784,
        "lon": -153.8825002834871,
        "alt_km": 1033.6006097354393,
        "timestamp": "2025-12-06T20:37:56.340210+00:00",
        "meta_object_name": "OPS 4947 (TRANSIT 17)",
        "meta_object_id": "1967-092A",
        "meta_epoch": "2025-12-06T14:41:24.078336",
        "meta_mean_motion": 13.53451394,
        "meta_eccentricity": 0.00458656,
        "meta_inclination": 89.2502,
        "meta_ra_of_asc_node": 24.9029,
        "meta_arg_of_pericenter": 252.8855,
        "meta_mean_anomaly": 220.1942,
        "meta_ephemeris_type": 0,
        "meta_classification_type": "U",
        "meta_norad_cat_id": 2965,
        "meta_element_set_no": 999,
        "meta_rev_at_epoch": 87014,
        "meta_bstar": 0.00029824008,
        "meta_mean_motion_dot": 2.13e-06,
        "meta_mean_motion_ddot": 0,
        "tle_line1": "1 02965U 67092A   25340.61208424  .00000213  00000+0  29824-3 0  9990",
        "tle_line2": "2 02965  89.2502  24.9029 0045865 252.8855 220.1942 13.53451394870147"
      },
      "geometry": {
        "type": "Point",
        "coordinates": [
          -153.8825002834871,
          -58.685929185562784
        ]
      }
    },
    {
      "type": "Feature",
      "properties": {
        "norad_id": 3133,
        "name": "OPS 7034 (TRANSIT 18)",
        "group": "nnss",
        "lat": 67.08274018928186,
        "lon": -86.44225539296359,
        "alt_km": 1086.3239979574955,
        "timestamp": "2025-12-06T20:37:56.340223+00:00",
        "meta_object_name": "OPS 7034 (TRANSIT 18)",
        "meta_object_id": "1968-012A",
        "meta_epoch": "2025-12-06T14:02:54.089664",
        "meta_mean_motion": 13.51563687,
        "meta_eccentricity": 0.0073283,
        "meta_inclination": 90.0273,
        "meta_ra_of_asc_node": 273.6216,
        "meta_arg_of_pericenter": 187.0443,
        "meta_mean_anomaly": 346.8139,
        "meta_ephemeris_type": 0,
        "meta_classification_type": "U",
        "meta_norad_cat_id": 3133,
        "meta_element_set_no": 999,
        "meta_rev_at_epoch": 56835,
        "meta_bstar": 0.00028456944,
        "meta_mean_motion_dot": 1.98e-06,
        "meta_mean_motion_ddot": 0,
        "tle_line1": "1 03133U 68012A   25340.58534826  .00000198  00000+0  28457-3 0  9998",
        "tle_line2": "2 03133  90.0273 273.6216 0073283 187.0443 346.8139 13.51563687568356"
      },
      "geometry": {
        "type": "Point",
        "coordinates": [
          -86.44225539296359,
          67.08274018928186
        ]
      }
    },
    {
      "type": "Feature",
      "properties": {
        "norad_id": 4507,
        "name": "NNSS 19 (TRANSIT 19)",
        "group": "nnss",
        "lat": 46.50641089987866,
        "lon": -125.47627803460675,
        "alt_km": 1074.615890305402,
        "timestamp": "2025-12-06T20:37:56.340236+00:00",
        "meta_object_name": "NNSS 19 (TRANSIT 19)",
        "meta_object_id": "1970-067A",
        "meta_epoch": "2025-12-06T15:04:26.494752",
        "meta_mean_motion": 13.51312777,
        "meta_eccentricity": 0.01709444,
        "meta_inclination": 90.0057,
        "meta_ra_of_asc_node": 234.5296,
        "meta_arg_of_pericenter": 311.2245,
        "meta_mean_anomaly": 47.4278,
        "meta_ephemeris_type": 0,
        "meta_classification_type": "U",
        "meta_norad_cat_id": 4507,
        "meta_element_set_no": 999,
        "meta_rev_at_epoch": 72139,
        "meta_bstar": 0.00035309811,
        "meta_mean_motion_dot": 2.59e-06,
        "meta_mean_motion_ddot": 0,
        "tle_line1": "1 04507U 70067A   25340.62808443  .00000259  00000+0  35310-3 0  9995",
        "tle_line2": "2 04507  90.0057 234.5296 0170944 311.2245  47.4278 13.51312777721394"
      },
      "geometry": {
        "type": "Point",
        "coordinates": [
          -125.47627803460675,
          46.50641089987866
        ]
      }
    },
    {
      "type": "Feature",
      "properties": {
        "norad_id": 6909,
        "name": "NNSS 20 (TRANSIT 20)",
        "group": "nnss",
        "lat": 50.69161994347582,
        "lon": -104.68176003415313,
        "alt_km": 907.2463181425574,
        "timestamp": "2025-12-06T20:37:56.340247+00:00",
        "meta_object_name": "NNSS 20 (TRANSIT 20)",
        "meta_object_id": "1973-081A",
        "meta_epoch": "2025-12-06T11:37:59.649024",
        "meta_mean_motion": 13.71430057,
        "meta_eccentricity": 0.01565716,
        "meta_inclination": 89.856,
        "meta_ra_of_asc_node": 255.1479,
        "meta_arg_of_pericenter": 96.8338,
        "meta_mean_anomaly": 265.0667,
        "meta_ephemeris_type": 0,
        "meta_classification_type": "U",
        "meta_norad_cat_id": 6909,
        "meta_element_set_no": 999,
        "meta_rev_at_epoch": 80275,
        "meta_bstar": 0.00037243995,
        "meta_mean_motion_dot": 3.77e-06,
        "meta_mean_motion_ddot": 0,
        "tle_line1": "1 06909U 73081A   25340.48471816  .00000377  00000+0  37244-3 0  9995",
        "tle_line2": "2 06909  89.8560 255.1479 0156571  96.8338 265.0667 13.71430057802752"
      },
      "geometry": {
        "type": "Point",
        "coordinates": [
          -104.68176003415313,
          50.69161994347582
        ]
      }
    },
    {
      "type": "Feature",
      "properties": {
        "norad_id": 10457,
        "name": "TRANSAT",
        "group": "nnss",
        "lat": 80.5235767909393,
        "lon": -103.3036037486574,
        "alt_km": 1074.3335652849328,
        "timestamp": "2025-12-06T20:37:56.340281+00:00",
        "meta_object_name": "TRANSAT",
        "meta_object_id": "1977-106A",
        "meta_epoch": "2025-12-06T13:04:22.786752",
        "meta_mean_motion": 13.48942166,
        "meta_eccentricity": 0.00248246,
        "meta_inclination": 89.6483,
        "meta_ra_of_asc_node": 78.8163,
        "meta_arg_of_pericenter": 207.712,
        "meta_mean_anomaly": 163.3582,
        "meta_ephemeris_type": 0,
        "meta_classification_type": "U",
        "meta_norad_cat_id": 10457,
        "meta_element_set_no": 999,
        "meta_rev_at_epoch": 36660,
        "meta_bstar": 0.00022413323,
        "meta_mean_motion_dot": 1.51e-06,
        "meta_mean_motion_ddot": 0,
        "tle_line1": "1 10457U 77106A   25340.54470818  .00000151  00000+0  22413-3 0  9990",
        "tle_line2": "2 10457  89.6483  78.8163 0024824 207.7120 163.3582 13.48942166366602"
      },
      "geometry": {
        "type": "Point",
        "coordinates": [
          -103.3036037486574,
          80.5235767909393
        ]
      }
    },
    {
      "type": "Feature",
      "properties": {
        "norad_id": 12458,
        "name": "NOVA 1",
        "group": "nnss",
        "lat": -4.073825369140975,
        "lon": -88.52122222773168,
        "alt_km": 1170.7480573878292,
        "timestamp": "2025-12-06T20:37:56.340293+00:00",
        "meta_object_name": "NOVA 1",
        "meta_object_id": "1981-044A",
        "meta_epoch": "2025-12-06T14:19:04.562976",
        "meta_mean_motion": 13.23277583,
        "meta_eccentricity": 0.00156708,
        "meta_inclination": 89.8525,
        "meta_ra_of_asc_node": 91.472,
        "meta_arg_of_pericenter": 119.1159,
        "meta_mean_anomaly": 252.0541,
        "meta_ephemeris_type": 0,
        "meta_classification_type": "U",
        "meta_norad_cat_id": 12458,
        "meta_element_set_no": 999,
        "meta_rev_at_epoch": 15105,
        "meta_bstar": 0.00022453576,
        "meta_mean_motion_dot": 1.04e-06,
        "meta_mean_motion_ddot": 0,
        "tle_line1": "1 12458U 81044A   25340.59658059  .00000104  00000+0  22454-3 0  9992",
        "tle_line2": "2 12458  89.8525  91.4720 0015670 119.1159 252.0541 13.23277583151050"
      },
      "geometry": {
        "type": "Point",
        "coordinates": [
          -88.52122222773168,
          -4.073825369140975
        ]
      }
    }
  ]
}